CCSDS_OMM_VERS = 2.0
CREATION_DATE  = 
ORIGINATOR     = 

OBJECT_NAME    = COSMOS 1933
OBJECT_ID      = 1988-020A
CENTER_NAME    = EARTH
REF_FRAME      = TEME
TIME_SYSTEM    = UTC
MEAN_ELEMENT_THEORY = SGP/SGP4

EPOCH          = 2026-02-20T01:21:56.202336
MEAN_MOTION    = 15.17819541
ECCENTRICITY   = .00027756
INCLINATION    = 82.5104
RA_OF_ASC_NODE = 268.3603
ARG_OF_PERICENTER = 261.4734
MEAN_ANOMALY   = 98.6185

EPHEMERIS_TYPE = 0
CLASSIFICATION_TYPE = U
NORAD_CAT_ID   = 18958
ELEMENT_SET_NO = 999
REV_AT_EPOCH   = 4755
BSTAR          = .14961545E-3
MEAN_MOTION_DOT = .3055E-4
MEAN_MOTION_DDOT = 0

CCSDS_OMM_VERS = 2.0
CREATION_DATE  = 
ORIGINATOR     = 

OBJECT_NAME    = SL-3 R/B
OBJECT_ID      = 1988-032B
CENTER_NAME    = EARTH
REF_FRAME      = TEME
TIME_SYSTEM    = UTC
MEAN_ELEMENT_THEORY = SGP/SGP4

EPOCH          = 2026-02-20T05:15:17.604000
MEAN_MOTION    = 15.19675047
ECCENTRICITY   = .00243238
INCLINATION    = 97.5170
RA_OF_ASC_NODE = 34.5384
ARG_OF_PERICENTER = 297.2174
MEAN_ANOMALY   = 62.6582

EPHEMERIS_TYPE = 0
CLASSIFICATION_TYPE = U
NORAD_CAT_ID   = 19046
ELEMENT_SET_NO = 999
REV_AT_EPOCH   = 4945
BSTAR          = .24202271E-3
MEAN_MOTION_DOT = .5133E-4
MEAN_MOTION_DDOT = 0

CCSDS_OMM_VERS = 2.0
CREATION_DATE  = 
ORIGINATOR     = 

OBJECT_NAME    = SL-16 R/B
OBJECT_ID      = 1988-039B
CENTER_NAME    = EARTH
REF_FRAME      = TEME
TIME_SYSTEM    = UTC
MEAN_ELEMENT_THEORY = SGP/SGP4

EPOCH          = 2026-02-20T05:22:08.057568
MEAN_MOTION    = 14.19613835
ECCENTRICITY   = .00216631
INCLINATION    = 71.0137
RA_OF_ASC_NODE = 105.4828
ARG_OF_PERICENTER = 0.5659
MEAN_ANOMALY   = 359.5487

EPHEMERIS_TYPE = 0
CLASSIFICATION_TYPE = U
NORAD_CAT_ID   = 19120
ELEMENT_SET_NO = 999
REV_AT_EPOCH   = 95590
BSTAR          = -.25497336E-4
MEAN_MOTION_DOT = -.102E-5
MEAN_MOTION_DDOT = 0

CCSDS_OMM_VERS = 2.0
CREATION_DATE  = 
ORIGINATOR     = 

OBJECT_NAME    = COSMOS 1953
OBJECT_ID      = 1988-050A
CENTER_NAME    = EARTH
REF_FRAME      = TEME
TIME_SYSTEM    = UTC
MEAN_ELEMENT_THEORY = SGP/SGP4

EPOCH          = 2026-02-19T19:36:32.954976
MEAN_MOTION    = 15.28165213
ECCENTRICITY   = .00114347
INCLINATION    = 82.5113
RA_OF_ASC_NODE = 176.2123
ARG_OF_PERICENTER = 182.0783
MEAN_ANOMALY   = 178.0411

EPHEMERIS_TYPE = 0
CLASSIFICATION_TYPE = U
NORAD_CAT_ID   = 19210
ELEMENT_SET_NO = 999
REV_AT_EPOCH   = 3505
BSTAR          = .34024555E-3
MEAN_MOTION_DOT = .9389E-4
MEAN_MOTION_DDOT = 0

CCSDS_OMM_VERS = 2.0
CREATION_DATE  = 
ORIGINATOR     = 

OBJECT_NAME    = SL-8 R/B
OBJECT_ID      = 1988-053B
CENTER_NAME    = EARTH
REF_FRAME      = TEME
TIME_SYSTEM    = UTC
MEAN_ELEMENT_THEORY = SGP/SGP4

EPOCH          = 2026-02-20T06:24:18.044064
MEAN_MOTION    = 14.38904452
ECCENTRICITY   = .00208813
INCLINATION    = 74.0483
RA_OF_ASC_NODE = 144.5793
ARG_OF_PERICENTER = 326.6761
MEAN_ANOMALY   = 51.2248

EPHEMERIS_TYPE = 0
CLASSIFICATION_TYPE = U
NORAD_CAT_ID   = 19257
ELEMENT_SET_NO = 999
REV_AT_EPOCH   = 97409
BSTAR          = .75731828E-4
MEAN_MOTION_DOT = .207E-5
MEAN_MOTION_DDOT = 0

CCSDS_OMM_VERS = 2.0
CREATION_DATE  = 
ORIGINATOR     = 

OBJECT_NAME    = COSMOS 1975
OBJECT_ID      = 1988-093A
CENTER_NAME    = EARTH
REF_FRAME      = TEME
TIME_SYSTEM    = UTC
MEAN_ELEMENT_THEORY = SGP/SGP4

EPOCH          = 2026-02-20T05:43:48.476064
MEAN_MOTION    = 15.27763066
ECCENTRICITY   = .00106938
INCLINATION    = 82.5216
RA_OF_ASC_NODE = 135.1961
ARG_OF_PERICENTER = 226.4145
MEAN_ANOMALY   = 133.6207

EPHEMERIS_TYPE = 0
CLASSIFICATION_TYPE = U
NORAD_CAT_ID   = 19573
ELEMENT_SET_NO = 999
REV_AT_EPOCH   = 1674
BSTAR          = .25715365E-3
MEAN_MOTION_DOT = .7015E-4
MEAN_MOTION_DDOT = 0

CCSDS_OMM_VERS = 2.0
CREATION_DATE  = 
ORIGINATOR     = 

OBJECT_NAME    = SL-14 R/B
OBJECT_ID      = 1988-093B
CENTER_NAME    = EARTH
REF_FRAME      = TEME
TIME_SYSTEM    = UTC
MEAN_ELEMENT_THEORY = SGP/SGP4

EPOCH          = 2026-02-20T01:59:43.994976
MEAN_MOTION    = 14.85633907
ECCENTRICITY   = .00223227
INCLINATION    = 82.5280
RA_OF_ASC_NODE = 58.5756
ARG_OF_PERICENTER = 95.9400
MEAN_ANOMALY   = 324.7039

EPHEMERIS_TYPE = 0
CLASSIFICATION_TYPE = U
NORAD_CAT_ID   = 19574
ELEMENT_SET_NO = 999
REV_AT_EPOCH   = 99842
BSTAR          = .45340644E-4
MEAN_MOTION_DOT = .419E-5
MEAN_MOTION_DDOT = 0

CCSDS_OMM_VERS = 2.0
CREATION_DATE  = 
ORIGINATOR     = 

OBJECT_NAME    = SL-16 R/B
OBJECT_ID      = 1988-102B
CENTER_NAME    = EARTH
REF_FRAME      = TEME
TIME_SYSTEM    = UTC
MEAN_ELEMENT_THEORY = SGP/SGP4

EPOCH          = 2026-02-20T07:36:12.511872
MEAN_MOTION    = 14.16152013
ECCENTRICITY   = .00129948
INCLINATION    = 70.9995
RA_OF_ASC_NODE = 188.0473
ARG_OF_PERICENTER = 28.6102
MEAN_ANOMALY   = 331.5731

EPHEMERIS_TYPE = 0
CLASSIFICATION_TYPE = U
NORAD_CAT_ID   = 19650
ELEMENT_SET_NO = 999
REV_AT_EPOCH   = 92443
BSTAR          = -.25894704E-4
MEAN_MOTION_DOT = -.99E-6
MEAN_MOTION_DDOT = 0

CCSDS_OMM_VERS = 2.0
CREATION_DATE  = 
ORIGINATOR     = 

OBJECT_NAME    = INTERCOSMOS 24
OBJECT_ID      = 1989-080A
CENTER_NAME    = EARTH
REF_FRAME      = TEME
TIME_SYSTEM    = UTC
MEAN_ELEMENT_THEORY = SGP/SGP4

EPOCH          = 2026-02-20T04:04:05.829024
MEAN_MOTION    = 12.59530192
ECCENTRICITY   = .11873279
INCLINATION    = 82.6050
RA_OF_ASC_NODE = 115.8107
ARG_OF_PERICENTER = 333.5206
MEAN_ANOMALY   = 20.9603

EPHEMERIS_TYPE = 0
CLASSIFICATION_TYPE = U
NORAD_CAT_ID   = 20261
ELEMENT_SET_NO = 999
REV_AT_EPOCH   = 66459
BSTAR          = .16505939E-3
MEAN_MOTION_DOT = .563E-5
MEAN_MOTION_DDOT = 0

CCSDS_OMM_VERS = 2.0
CREATION_DATE  = 
ORIGINATOR     = 

OBJECT_NAME    = SL-14 R/B
OBJECT_ID      = 1989-080C
CENTER_NAME    = EARTH
REF_FRAME      = TEME
TIME_SYSTEM    = UTC
MEAN_ELEMENT_THEORY = SGP/SGP4

EPOCH          = 2026-02-19T20:55:02.937792
MEAN_MOTION    = 12.50468936
ECCENTRICITY   = .1229811
INCLINATION    = 82.5960
RA_OF_ASC_NODE = 184.6225
ARG_OF_PERICENTER = 225.4815
MEAN_ANOMALY   = 123.9191

EPHEMERIS_TYPE = 0
CLASSIFICATION_TYPE = U
NORAD_CAT_ID   = 20262
ELEMENT_SET_NO = 999
REV_AT_EPOCH   = 65792
BSTAR          = .14964E-3
MEAN_MOTION_DOT = .499E-5
MEAN_MOTION_DDOT = 0

CCSDS_OMM_VERS = 2.0
CREATION_DATE  = 
ORIGINATOR     = 

OBJECT_NAME    = DELTA 1 R/B
OBJECT_ID      = 1989-089B
CENTER_NAME    = EARTH
REF_FRAME      = TEME
TIME_SYSTEM    = UTC
MEAN_ELEMENT_THEORY = SGP/SGP4

EPOCH          = 2026-02-20T04:04:26.717952
MEAN_MOTION    = 14.50647357
ECCENTRICITY   = .00691585
INCLINATION    = 97.0716
RA_OF_ASC_NODE = 261.3935
ARG_OF_PERICENTER = 176.8284
MEAN_ANOMALY   = 183.3367

EPHEMERIS_TYPE = 0
CLASSIFICATION_TYPE = U
NORAD_CAT_ID   = 20323
ELEMENT_SET_NO = 999
REV_AT_EPOCH   = 89319
BSTAR          = .73043061E-4
MEAN_MOTION_DOT = .26E-5
MEAN_MOTION_DDOT = 0

CCSDS_OMM_VERS = 2.0
CREATION_DATE  = 
ORIGINATOR     = 

OBJECT_NAME    = ARIANE 40 R/B
OBJECT_ID      = 1990-005H
CENTER_NAME    = EARTH
REF_FRAME      = TEME
TIME_SYSTEM    = UTC
MEAN_ELEMENT_THEORY = SGP/SGP4

EPOCH          = 2026-02-20T03:54:18.563040
MEAN_MOTION    = 14.39857988
ECCENTRICITY   = .00090174
INCLINATION    = 98.3124
RA_OF_ASC_NODE = 112.3430
ARG_OF_PERICENTER = 254.9451
MEAN_ANOMALY   = 105.0740

EPHEMERIS_TYPE = 0
CLASSIFICATION_TYPE = U
NORAD_CAT_ID   = 20443
ELEMENT_SET_NO = 999
REV_AT_EPOCH   = 89028
BSTAR          = .84822582E-4
MEAN_MOTION_DOT = .224E-5
MEAN_MOTION_DDOT = 0

