COSMOS 1933             
1 18958U 88020A   26051.05690049  .00003055  00000+0  14962-3 0  9993
2 18958  82.5104 268.3603 0002775 261.4734  98.6185 15.17819541 47559
SL-3 R/B                
1 19046U 88032B   26051.21895375  .00005133  00000+0  24202-3 0  9999
2 19046  97.5170  34.5384 0024323 297.2174  62.6582 15.19675047 49450
SL-16 R/B               
1 19120U 88039B   26051.22370437 -.00000102  00000+0 -25497-4 0  9998
2 19120  71.0137 105.4828 0021663   0.5659 359.5487 14.19613835955905
COSMOS 1953             
1 19210U 88050A   26050.81704809  .00009389  00000+0  34025-3 0  9999
2 19210  82.5113 176.2123 0011434 182.0783 178.0411 15.28165213 35058
SL-8 R/B                
1 19257U 88053B   26051.26687551  .00000207  00000+0  75732-4 0  9998
2 19257  74.0483 144.5793 0020881 326.6761  51.2248 14.38904452974096
COSMOS 1975             
1 19573U 88093A   26051.23875551  .00007015  00000+0  25715-3 0  9998
2 19573  82.5216 135.1961 0010693 226.4145 133.6207 15.27763066 16743
SL-14 R/B               
1 19574U 88093B   26051.08314809  .00000419  00000+0  45341-4 0  9995
2 19574  82.5280  58.5756 0022322  95.9400 324.7039 14.85633907998423
SL-16 R/B               
1 19650U 88102B   26051.31681148 -.00000099  00000+0 -25895-4 0  9998
2 19650  70.9995 188.0473 0012994  28.6102 331.5731 14.16152013924436
INTERCOSMOS 24          
1 20261U 89080A   26051.16951191  .00000563  00000+0  16506-3 0  9997
2 20261  82.6050 115.8107 1187327 333.5206  20.9603 12.59530192664595
SL-14 R/B               
1 20262U 89080C   26050.87156178  .00000499  00000+0  14964-3 0  9991
2 20262  82.5960 184.6225 1229811 225.4815 123.9191 12.50468936657922
DELTA 1 R/B             
1 20323U 89089B   26051.16975368  .00000260  00000+0  73043-4 0  9991
2 20323  97.0716 261.3935 0069158 176.8284 183.3367 14.50647357893199
ARIANE 40 R/B           
1 20443U 90005H   26051.16271485  .00000224  00000+0  84823-4 0  9991
2 20443  98.3124 112.3430 0009017 254.9451 105.0740 14.39857988890289
